ONEWEB-0102             
1 47258U 20100A   24328.34712419 -.00000182  00000+0 -54018-3 0  9992
2 47258  87.8866 104.3587 0001370  98.1620 261.9664 13.12442084189850
ONEWEB-0109             
1 47259U 20100B   24328.35523270  .00000118  00000+0  29292-3 0  9992
2 47259  87.8864 104.3233 0001355  96.2351 263.8932 13.12444715189683
ONEWEB-0110             
1 47260U 20100C   24328.38118773  .00000469  00000+0  12670-2 0  9995
2 47260  87.8858 104.3142 0001403  88.8941 271.2348 13.12440338189853
ONEWEB-0111             
1 47261U 20100D   24328.33575032 -.00000708  00000+0 -20022-2 0  9994
2 47261  87.8862 104.3272 0001392  95.0281 265.1007 13.12442205189687
ONEWEB-0114             
1 47262U 20100E   24328.36658475  .00001901  00000+0  52472-2 0  9999
2 47262  87.8866 104.3316 0001390 112.4974 247.6301 13.12436936189644
ONEWEB-0117             
1 47263U 20100F   24328.35848279  .00000209  00000+0  54487-3 0  9991
2 47263  87.8864 104.3137 0001531  96.6424 263.4879 13.12442127189650
ONEWEB-0118             
1 47264U 20100G   24327.93349622  .00000040  00000+0  75499-4 0  9993
2 47264  87.8862 104.4013 0001470 113.7956 246.3327 13.12441624189790
ONEWEB-0119             
1 47265U 20100H   24327.88483748 -.00000201  00000+0 -59535-3 0  9999
2 47265  87.8861 104.4505 0001436  94.3739 265.7554 13.12442231189760
